[{"OBJECT_NAME":"STARLINK-35359","OBJECT_ID":"2025-211U","EPOCH":"2026-03-09T16:12:16.598304","MEAN_MOTION":15.05651823,"ECCENTRICITY":0.00015534,"INCLINATION":97.6025,"RA_OF_ASC_NODE":114.1122,"ARG_OF_PERICENTER":125.7368,"MEAN_ANOMALY":234.4004,"EPHEMERIS_TYPE":0,"CLASSIFICATION_TYPE":"U","NORAD_CAT_ID":65670,"ELEMENT_SET_NO":999,"REV_AT_EPOCH":2704,"BSTAR":0.00026843515,"MEAN_MOTION_DOT":3.815e-5,"MEAN_MOTION_DDOT":0},{"OBJECT_NAME":"COSMOS 2251 DEB","OBJECT_ID":"1993-036GR","EPOCH":"2026-03-09T03:51:30.155616","MEAN_MOTION":15.03624382,"ECCENTRICITY":0.001162,"INCLINATION":74.0519,"RA_OF_ASC_NODE":328.1155,"ARG_OF_PERICENTER":228.8449,"MEAN_ANOMALY":281.5146,"EPHEMERIS_TYPE":0,"CLASSIFICATION_TYPE":"U","NORAD_CAT_ID":34006,"ELEMENT_SET_NO":999,"REV_AT_EPOCH":89963,"BSTAR":0.0037151817,"MEAN_MOTION_DOT":0.00051242,"MEAN_MOTION_DDOT":0}]
